******** Week 819 almanac for PRN-19 ********
ID:                         19
Health:                     000
Eccentricity:               0.1131820679E-001
Time of Applicability(s):  319488.0000
Orbital Inclination(rad):   0.9694482942
Rate of Right Ascen(r/s):  -0.7566029441E-008
SQRT(A)  (m 1/2):           5153.682129
Right Ascen at Week(rad):  -0.2511611911E+001
Argument of Perigee(rad):   0.538696527
Mean Anom(rad):            -0.1704766479E+001
Af0(s):                    -0.5092620850E-003
Af1(s/s):                   0.0000000000E+000
week:                        819

******** Week 819 almanac for PRN-20 ********
ID:                         20
Health:                     000
Eccentricity:               0.5660533905E-002
Time of Applicability(s):  319488.0000
Orbital Inclination(rad):   0.9263530215
Rate of Right Ascen(r/s):  -0.8263201338E-008
SQRT(A)  (m 1/2):           5155.734863
Right Ascen at Week(rad):  -0.5829647559E+000
Argument of Perigee(rad):   1.217092789
Mean Anom(rad):            -0.8373441608E+000
Af0(s):                     0.3175735474E-003
Af1(s/s):                   0.3637978807E-011
week:                        819

******** Week 819 almanac for PRN-21 ********
ID:                         21
Health:                     000
Eccentricity:               0.2255344391E-001
Time of Applicability(s):  319488.0000
Orbital Inclination(rad):   0.9334057378
Rate of Right Ascen(r/s):  -0.8194627053E-008
SQRT(A)  (m 1/2):           5153.505859
Right Ascen at Week(rad):  -0.1574290103E+001
Argument of Perigee(rad):  -1.913066539
Mean Anom(rad):             0.1669454586E+001
Af0(s):                    -0.4434585571E-003
Af1(s/s):                  -0.3637978807E-011
week:                        819

******** Week 819 almanac for PRN-22 ********
ID:                         22
Health:                     000
Eccentricity:               0.7876396179E-002
Time of Applicability(s):  319488.0000
Orbital Inclination(rad):   0.9230273991
Rate of Right Ascen(r/s):  -0.8274630386E-008
SQRT(A)  (m 1/2):           5153.623535
Right Ascen at Week(rad):  -0.5293023928E+000
Argument of Perigee(rad):  -2.052691373
Mean Anom(rad):             0.1336967621E+000
Af0(s):                     0.3471374512E-003
Af1(s/s):                   0.3637978807E-011
week:                        819

******** Week 819 almanac for PRN-23 ********
ID:                         23
Health:                     000
Eccentricity:               0.1009654999E-001
Time of Applicability(s):  319488.0000
Orbital Inclination(rad):   0.9490151908
Rate of Right Ascen(r/s):  -0.7783181344E-008
SQRT(A)  (m 1/2):           5153.578613
Right Ascen at Week(rad):   0.5405514604E+000
Argument of Perigee(rad):  -2.688801298
Mean Anom(rad):            -0.2109344175E+001
Af0(s):                    -0.1068115234E-003
Af1(s/s):                  -0.3637978807E-011
week:                        819

******** Week 819 almanac for PRN-24 ********
ID:                         24
Health:                     000
Eccentricity:               0.3237247467E-002
Time of Applicability(s):  319488.0000
Orbital Inclination(rad):   0.9534253855
Rate of Right Ascen(r/s):  -0.8274630386E-008
SQRT(A)  (m 1/2):           5153.622070
Right Ascen at Week(rad):   0.1567643352E+001
Argument of Perigee(rad):   0.361305281
Mean Anom(rad):            -0.2860896265E+001
Af0(s):                    -0.4768371582E-004
Af1(s/s):                   0.0000000000E+000
week:                        819

******** Week 819 almanac for PRN-25 ********
ID:                         25
Health:                     000
Eccentricity:               0.4587173462E-002
Time of Applicability(s):  319488.0000
Orbital Inclination(rad):   0.9782686838
Rate of Right Ascen(r/s):  -0.7954617056E-008
SQRT(A)  (m 1/2):           5153.639648
Right Ascen at Week(rad):   0.2630553845E+001
Argument of Perigee(rad):   0.712042348
Mean Anom(rad):             0.1425497337E+001
Af0(s):                    -0.2670288086E-004
Af1(s/s):                  -0.3637978807E-011
week:                        819

******** Week 819 almanac for PRN-26 ********
ID:                         26
Health:                     000
Eccentricity:               0.2794265747E-003
Time of Applicability(s):  319488.0000
Orbital Inclination(rad):   0.9603882202
Rate of Right Ascen(r/s):  -0.8137481816E-008
SQRT(A)  (m 1/2):           5153.514648
Right Ascen at Week(rad):   0.2628337138E+001
Argument of Perigee(rad):   1.174125224
Mean Anom(rad):            -0.3991855434E+000
Af0(s):                     0.2765655518E-004
Af1(s/s):                   0.3637978807E-011
week:                        819

******** Week 819 almanac for PRN-27 ********
ID:                         27
Health:                     000
Eccentricity:               0.2393722534E-002
Time of Applicability(s):  319488.0000
Orbital Inclination(rad):   0.9673210943
Rate of Right Ascen(r/s):  -0.7611745631E-008
SQRT(A)  (m 1/2):           5153.648926
Right Ascen at Week(rad):  -0.2608893857E+001
Argument of Perigee(rad):   0.187259881
Mean Anom(rad):            -0.8328893997E+000
Af0(s):                     0.6961822510E-004
Af1(s/s):                   0.3637978807E-011
week:                        819

******** Week 819 almanac for PRN-28 ********
ID:                         28
Health:                     000
Eccentricity:               0.1952505112E-001
Time of Applicability(s):  319488.0000
Orbital Inclination(rad):   0.9889586124
Rate of Right Ascen(r/s):  -0.7794610391E-008
SQRT(A)  (m 1/2):           5153.652344
Right Ascen at Week(rad):   0.2700964162E+001
Argument of Perigee(rad):  -1.664690482
Mean Anom(rad):            -0.8634708946E-001
Af0(s):                     0.4377365112E-003
Af1(s/s):                   0.3637978807E-011
week:                        819

******** Week 819 almanac for PRN-29 ********
ID:                         29
Health:                     000
Eccentricity:               0.1315116882E-002
Time of Applicability(s):  319488.0000
Orbital Inclination(rad):   0.9732413014
Rate of Right Ascen(r/s):  -0.7577458489E-008
SQRT(A)  (m 1/2):           5153.727051
Right Ascen at Week(rad):  -0.2551925345E+001
Argument of Perigee(rad):  -0.648313611
Mean Anom(rad):             0.1766370638E+001
Af0(s):                     0.6084442139E-003
Af1(s/s):                   0.3637978807E-011
week:                        819

******** Week 819 almanac for PRN-30 ********
ID:                         30
Health:                     000
Eccentricity:               0.1322746277E-002
Time of Applicability(s):  319488.0000
Orbital Inclination(rad):   0.9559300885
Rate of Right Ascen(r/s):  -0.8263201338E-008
SQRT(A)  (m 1/2):           5153.691895
Right Ascen at Week(rad):   0.1657832884E+001
Argument of Perigee(rad):   2.849603755
Mean Anom(rad):             0.2801215200E+001
Af0(s):                    -0.6294250488E-004
Af1(s/s):                   0.3637978807E-011
week:                        819

******** Week 819 almanac for PRN-31 ********
ID:                         31
Health:                     000
Eccentricity:               0.8122444153E-002
Time of Applicability(s):  319488.0000
Orbital Inclination(rad):   0.9750868720
Rate of Right Ascen(r/s):  -0.8057478483E-008
SQRT(A)  (m 1/2):           5153.727051
Right Ascen at Week(rad):   0.1615850646E+001
Argument of Perigee(rad):  -0.516093155
Mean Anom(rad):             0.2468229766E+001
Af0(s):                     0.3166198730E-003
Af1(s/s):                   0.0000000000E+000
week:                        819

******** Week 819 almanac for PRN-32 ********
ID:                         32
Health:                     000
Eccentricity:               0.1126098633E-001
Time of Applicability(s):  319488.0000
Orbital Inclination(rad):   0.9471756122
Rate of Right Ascen(r/s):  -0.8000333246E-008
SQRT(A)  (m 1/2):           5153.717285
Right Ascen at Week(rad):  -0.4289667168E+000
Argument of Perigee(rad):   0.042980674
Mean Anom(rad):             0.3110769976E+001
Af0(s):                    -0.1583099365E-003
Af1(s/s):                   0.1091393642E-010
week:                        819
